{"type": "FeatureCollection", "features": [ {"type": "Feature", "properties": {"norad_id": 35829, "name": "COSMOS 2251 DEB", "group": "cosmos-2251-debris", "lat": 44.34999903008132, "lon": 118.89306055121767, "alt_km": 639.6419269096114, "timestamp": "2025-12-10T18:57:00.461760+00:00", "meta": {"OBJECT_NAME": "COSMOS 2251 DEB", "OBJECT_ID": "1993-036ATB", "EPOCH": "2025-12-08T14:41:25.732032", "MEAN_MOTION": 14.76103447, "ECCENTRICITY": 0.0006283, "INCLINATION": 74.0249, "RA_OF_ASC_NODE": 106.8945, "ARG_OF_PERICENTER": 174.4564, "MEAN_ANOMALY": 185.6681, "EPHEMERIS_TYPE": 0, "CLASSIFICATION_TYPE": "U", "NORAD_CAT_ID": 35829, "ELEMENT_SET_NO": 999, "REV_AT_EPOCH": 87714, "BSTAR": 0.0032694, "MEAN_MOTION_DOT": 0.0002262, "MEAN_MOTION_DDOT": 0}, "tle": {"line1": "1 35829U 93036ATB 25342.61210338  .00022620  00000+0  32694-2 0  9995", "line2": "2 35829  74.0249 106.8945 0006283 174.4564 185.6681 14.76103447877147"}}, "geometry": {"type": "Point", "coordinates": [118.89306055121767, 44.34999903008132]}}, {"type": "Feature", "properties": {"norad_id": 35830, "name": "COSMOS 2251 DEB", "group": "cosmos-2251-debris", "lat": -2.8382189036038286, "lon": -90.83608280662483, "alt_km": 856.1248161992589, "timestamp": "2025-12-10T18:57:00.461770+00:00", "meta": {"OBJECT_NAME": "COSMOS 2251 DEB", "OBJECT_ID": "1993-036ATC", "EPOCH": "2025-12-06T12:06:38.215008", "MEAN_MOTION": 14.23927917, "ECCENTRICITY": 0.01224789, "INCLINATION": 73.8624, "RA_OF_ASC_NODE": 277.7805, "ARG_OF_PERICENTER": 247.2482, "MEAN_ANOMALY": 111.5683, "EPHEMERIS_TYPE": 0, "CLASSIFICATION_TYPE": "U", "NORAD_CAT_ID": 35830, "ELEMENT_SET_NO": 999, "REV_AT_EPOCH": 61175, "BSTAR": 0.0019622096, "MEAN_MOTION_DOT": 4.837e-05, "MEAN_MOTION_DDOT": 0}, "tle": {"line1": "1 35830U 93036ATC 25340.50460897  .00004837  00000+0  19622-2 0  9996", "line2": "2 35830  73.8624 277.7805 0122478 247.2482 111.5683 14.23927917611750"}}, "geometry": {"type": "Point", "coordinates": [-90.83608280662483, -2.8382189036038286]}}, {"type": "Feature", "properties": {"norad_id": 35834, "name": "COSMOS 2251 DEB", "group": "cosmos-2251-debris", "lat": -73.80963930321147, "lon": -135.06884207024635, "alt_km": 931.6691574789666, "timestamp": "2025-12-10T18:57:00.461780+00:00", "meta": {"OBJECT_NAME": "COSMOS 2251 DEB", "OBJECT_ID": "1993-036ATG", "EPOCH": "2025-12-10T04:09:38.447424", "MEAN_MOTION": 14.12975254, "ECCENTRICITY": 0.01091936, "INCLINATION": 73.9311, "RA_OF_ASC_NODE": 309.1077, "ARG_OF_PERICENTER": 109.914, "MEAN_ANOMALY": 268.3063, "EPHEMERIS_TYPE": 0, "CLASSIFICATION_TYPE": "U", "NORAD_CAT_ID": 35834, "ELEMENT_SET_NO": 999, "REV_AT_EPOCH": 66227, "BSTAR": 0.00036917198, "MEAN_MOTION_DOT": 7.04e-06, "MEAN_MOTION_DDOT": 0}, "tle": {"line1": "1 35834U 93036ATG 25344.17336166  .00000704  00000+0  36917-3 0  9994", "line2": "2 35834  73.9311 309.1077 0109193 109.9140 268.3063 14.12975254662274"}}, "geometry": {"type": "Point", "coordinates": [-135.06884207024635, -73.80963930321147]}}, {"type": "Feature", "properties": {"norad_id": 35835, "name": "COSMOS 2251 DEB", "group": "cosmos-2251-debris", "lat": 55.3470082169991, "lon": -63.86743518614805, "alt_km": 736.3833289376616, "timestamp": "2025-12-10T18:57:00.461789+00:00", "meta": {"OBJECT_NAME": "COSMOS 2251 DEB", "OBJECT_ID": "1993-036ATH", "EPOCH": "2025-12-08T02:26:31.163712", "MEAN_MOTION": 13.82845446, "ECCENTRICITY": 0.0289856, "INCLINATION": 74.0637, "RA_OF_ASC_NODE": 276.2339, "ARG_OF_PERICENTER": 58.9026, "MEAN_ANOMALY": 304.0195, "EPHEMERIS_TYPE": 0, "CLASSIFICATION_TYPE": "U", "NORAD_CAT_ID": 35835, "ELEMENT_SET_NO": 999, "REV_AT_EPOCH": 61635, "BSTAR": 0.0020246404, "MEAN_MOTION_DOT": 3.026e-05, "MEAN_MOTION_DDOT": 0}, "tle": {"line1": "1 35835U 93036ATH 25342.10174958  .00003026  00000+0  20246-2 0  9992", "line2": "2 35835  74.0637 276.2339 0289856  58.9026 304.0195 13.82845446616351"}}, "geometry": {"type": "Point", "coordinates": [-63.86743518614805, 55.3470082169991]}}, {"type": "Feature", "properties": {"norad_id": 35836, "name": "COSMOS 2251 DEB", "group": "cosmos-2251-debris", "lat": 18.146759400642452, "lon": -177.89105996412337, "alt_km": 672.2134580575639, "timestamp": "2025-12-10T18:57:00.461799+00:00", "meta": {"OBJECT_NAME": "COSMOS 2251 DEB", "OBJECT_ID": "1993-036ATJ", "EPOCH": "2025-12-08T21:09:26.726112", "MEAN_MOTION": 14.70831317, "ECCENTRICITY": 0.0024584, "INCLINATION": 74.031, "RA_OF_ASC_NODE": 180.4275, "ARG_OF_PERICENTER": 239.4807, "MEAN_ANOMALY": 120.3938, "EPHEMERIS_TYPE": 0, "CLASSIFICATION_TYPE": "U", "NORAD_CAT_ID": 35836, "ELEMENT_SET_NO": 999, "REV_AT_EPOCH": 63463, "BSTAR": 0.0019954, "MEAN_MOTION_DOT": 0.00012243, "MEAN_MOTION_DDOT": 0}, "tle": {"line1": "1 35836U 93036ATJ 25342.88155933  .00012243  00000+0  19954-2 0  9995", "line2": "2 35836  74.0310 180.4275 0024584 239.4807 120.3938 14.70831317634638"}}, "geometry": {"type": "Point", "coordinates": [-177.89105996412337, 18.146759400642452]}}, {"type": "Feature", "properties": {"norad_id": 35837, "name": "COSMOS 2251 DEB", "group": "cosmos-2251-debris", "lat": -23.62978793492884, "lon": -156.47284064002062, "alt_km": 1312.7110117566335, "timestamp": "2025-12-10T18:57:00.461809+00:00", "meta": {"OBJECT_NAME": "COSMOS 2251 DEB", "OBJECT_ID": "1993-036ATK", "EPOCH": "2025-12-09T22:01:37.127712", "MEAN_MOTION": 13.63437069, "ECCENTRICITY": 0.04220669, "INCLINATION": 73.7216, "RA_OF_ASC_NODE": 212.3216, "ARG_OF_PERICENTER": 133.5531, "MEAN_ANOMALY": 246.304, "EPHEMERIS_TYPE": 0, "CLASSIFICATION_TYPE": "U", "NORAD_CAT_ID": 35837, "ELEMENT_SET_NO": 999, "REV_AT_EPOCH": 57938, "BSTAR": 0.0025074688, "MEAN_MOTION_DOT": 3.597e-05, "MEAN_MOTION_DDOT": 0}, "tle": {"line1": "1 35837U 93036ATK 25343.91779083  .00003597  00000+0  25075-2 0  9992", "line2": "2 35837  73.7216 212.3216 0422066 133.5531 246.3040 13.63437069579385"}}, "geometry": {"type": "Point", "coordinates": [-156.47284064002062, -23.62978793492884]}}, {"type": "Feature", "properties": {"norad_id": 35839, "name": "COSMOS 2251 DEB", "group": "cosmos-2251-debris", "lat": 58.63119776068838, "lon": 120.09378074918418, "alt_km": 408.4301740251849, "timestamp": "2025-12-10T18:57:00.461819+00:00", "meta": {"OBJECT_NAME": "COSMOS 2251 DEB", "OBJECT_ID": "1993-036ATM", "EPOCH": "2025-12-10T09:09:13.415328", "MEAN_MOTION": 15.50250153, "ECCENTRICITY": 0.000117, "INCLINATION": 74.2065, "RA_OF_ASC_NODE": 328.6438, "ARG_OF_PERICENTER": 73.1607, "MEAN_ANOMALY": 286.9735, "EPHEMERIS_TYPE": 0, "CLASSIFICATION_TYPE": "U", "NORAD_CAT_ID": 35839, "ELEMENT_SET_NO": 999, "REV_AT_EPOCH": 88531, "BSTAR": 0.007508, "MEAN_MOTION_DOT": 0.00450066, "MEAN_MOTION_DDOT": 0}, "tle": {"line1": "1 35839U 93036ATM 25344.38140527  .00450066  00000+0  75080-2 0  9999", "line2": "2 35839  74.2065 328.6438 0001170  73.1607 286.9735 15.50250153885313"}}, "geometry": {"type": "Point", "coordinates": [120.09378074918418, 58.63119776068838]}}, {"type": "Feature", "properties": {"norad_id": 35840, "name": "COSMOS 2251 DEB", "group": "cosmos-2251-debris", "lat": -21.127543142239418, "lon": 155.39881571147077, "alt_km": 764.997937587118, "timestamp": "2025-12-10T18:57:00.461829+00:00", "meta": {"OBJECT_NAME": "COSMOS 2251 DEB", "OBJECT_ID": "1993-036ATN", "EPOCH": "2025-12-09T04:38:38.499360", "MEAN_MOTION": 14.37769402, "ECCENTRICITY": 0.0116323, "INCLINATION": 73.9303, "RA_OF_ASC_NODE": 164.7511, "ARG_OF_PERICENTER": 68.104, "MEAN_ANOMALY": 293.2433, "EPHEMERIS_TYPE": 0, "CLASSIFICATION_TYPE": "U", "NORAD_CAT_ID": 35840, "ELEMENT_SET_NO": 999, "REV_AT_EPOCH": 85240, "BSTAR": 0.002118, "MEAN_MOTION_DOT": 6.875e-05, "MEAN_MOTION_DDOT": 0}, "tle": {"line1": "1 35840U 93036ATN 25343.19350115  .00006875  00000+0  21180-2 0  9992", "line2": "2 35840  73.9303 164.7511 0116323  68.1040 293.2433 14.37769402852405"}}, "geometry": {"type": "Point", "coordinates": [155.39881571147077, -21.127543142239418]}}, {"type": "Feature", "properties": {"norad_id": 35883, "name": "COSMOS 2251 DEB", "group": "cosmos-2251-debris", "lat": -64.93624750483202, "lon": -68.52969728099295, "alt_km": 689.6237992723554, "timestamp": "2025-12-10T18:57:00.461839+00:00", "meta": {"OBJECT_NAME": "COSMOS 2251 DEB", "OBJECT_ID": "1993-036ATW", "EPOCH": "2025-12-08T12:53:27.979296", "MEAN_MOTION": 14.5058807, "ECCENTRICITY": 0.00839123, "INCLINATION": 74.0248, "RA_OF_ASC_NODE": 77.932, "ARG_OF_PERICENTER": 208.211, "MEAN_ANOMALY": 163.6192, "EPHEMERIS_TYPE": 0, "CLASSIFICATION_TYPE": "U", "NORAD_CAT_ID": 35883, "ELEMENT_SET_NO": 999, "REV_AT_EPOCH": 62325, "BSTAR": 0.00065719246, "MEAN_MOTION_DOT": 2.667e-05, "MEAN_MOTION_DDOT": 0}, "tle": {"line1": "1 35883U 93036ATW 25342.53712939  .00002667  00000+0  65719-3 0  9994", "line2": "2 35883  74.0248  77.9320 0083912 208.2110 163.6192 14.50588070623253"}}, "geometry": {"type": "Point", "coordinates": [-68.52969728099295, -64.93624750483202]}}, {"type": "Feature", "properties": {"norad_id": 35884, "name": "COSMOS 2251 DEB", "group": "cosmos-2251-debris", "lat": 32.63228538385147, "lon": 148.94636891389632, "alt_km": 729.9497177874728, "timestamp": "2025-12-10T18:57:00.461849+00:00", "meta": {"OBJECT_NAME": "COSMOS 2251 DEB", "OBJECT_ID": "1993-036ATX", "EPOCH": "2025-12-09T17:00:47.209536", "MEAN_MOTION": 14.25629404, "ECCENTRICITY": 0.01087033, "INCLINATION": 73.9912, "RA_OF_ASC_NODE": 341.4952, "ARG_OF_PERICENTER": 129.2859, "MEAN_ANOMALY": 231.7992, "EPHEMERIS_TYPE": 0, "CLASSIFICATION_TYPE": "U", "NORAD_CAT_ID": 35884, "ELEMENT_SET_NO": 999, "REV_AT_EPOCH": 22314, "BSTAR": 0.001725321, "MEAN_MOTION_DOT": 4.326e-05, "MEAN_MOTION_DDOT": 0}, "tle": {"line1": "1 35884U 93036ATX 25343.70887974  .00004326  00000+0  17253-2 0  9990", "line2": "2 35884  73.9912 341.4952 0108703 129.2859 231.7992 14.25629404223146"}}, "geometry": {"type": "Point", "coordinates": [148.94636891389632, 32.63228538385147]}}]}